ONEWEB-0271             
1 48989U 21060Y   25251.83010572  .00000037  00000+0  63555-4 0  9995
2 48989  87.8992 284.8449 0001663  88.6334 271.4988 13.16594879202646
ONEWEB-0272             
1 48990U 21060Z   25251.85226377  .00000097  00000+0  21906-3 0  9990
2 48990  87.8981 284.8690 0001793  85.6426 274.4910 13.16595754202592
ONEWEB-0273             
1 48991U 21060AA  25251.64645546 -.00000090  00000+0 -26883-3 0  9995
2 48991  87.8992 284.8975 0001717  94.3810 265.7517 13.16593824202548
ONEWEB-0274             
1 48992U 21060AB  25251.82377633  .00000043  00000+0  79175-4 0  9994
2 48992  87.8982 284.8941 0002048  82.4207 277.7157 13.16594307202604
ONEWEB-0275             
1 48993U 21060AC  25251.81268587  .00000041  00000+0  73543-4 0  9992
2 48993  87.8989 284.8591 0001856  89.6175 270.5169 13.16593954202535
ONEWEB-0276             
1 48994U 21060AD  25251.84593934  .00000053  00000+0  10446-3 0  9998
2 48994  87.8991 284.8498 0001772  97.9097 262.2235 13.16594633202556
ONEWEB-0277             
1 48995U 21060AE  25251.85859546  .00000132  00000+0  31143-3 0  9999
2 48995  87.8986 284.8806 0001557  86.2856 273.8453 13.16595295202543
ONEWEB-0278             
1 48996U 21060AF  25251.84909741  .00000152  00000+0  36460-3 0  9991
2 48996  87.8990 284.8459 0001944 100.2487 259.8863 13.16596092202679
ONEWEB-0279             
1 48997U 21060AG  25251.62901713  .00000059  00000+0  11954-3 0  9996
2 48997  87.8990 284.8854 0001693  84.3682 275.7642 13.16595695202578
ONEWEB-0280             
1 48998U 21060AH  25251.87205734  .00000049  00000+0  94030-4 0  9990
2 48998  87.8991 284.8448 0001599 100.2162 259.9150 13.16593234202547
ONEWEB-0281             
1 48999U 21060AJ  25251.80161060 -.00000046  00000+0 -15346-3 0  9998
2 48999  87.8991 284.8558 0001999  89.7218 270.4142 13.16593820202604
ONEWEB-0282             
1 49000U 21060AK  25251.83168813  .00000010  00000+0 -62970-5 0  9995
2 49000  87.8991 284.8595 0001719  94.7984 265.3343 13.16594266202583
ONEWEB-0283             
1 49001U 21060AL  25251.59261199 -.00000013  00000+0 -67301-4 0  9996
2 49001  87.8987 284.9099 0001756  89.4499 270.6833 13.16595096202565
ONEWEB-0284             
1 49002U 21060AM  25251.81427541 -.00000028  00000+0 -10632-3 0  9997
2 49002  87.8999 284.8460 0001932 102.7388 257.3959 13.16594912202570
ONEWEB-0285             
1 49075U 21075A   25251.89764958  .00000145  00000+0  36819-3 0  9990
2 49075  87.8893  46.5478 0001650  95.2203 264.9114 13.12442026198311
ONEWEB-0286             
1 49076U 21075B   25251.87951470  .00000389  00000+0  10466-2 0  9995
2 49076  87.8902  46.5859 0001899  93.9905 266.1440 13.12442063197669
ONEWEB-0287             
1 49077U 21075C   25251.89906816 -.00000034  00000+0 -12184-3 0  9991
2 49077  87.9044  61.8180 0002072  93.6932 266.4436 13.17646018196585
ONEWEB-0288             
1 49078U 21075D   25251.93156446 -.00000288  00000+0 -83657-3 0  9997
2 49078  87.8893  46.5360 0001758  99.6119 260.5208 13.12443885198294
ONEWEB-0289             
1 49079U 21075E   25251.93774870  .00000010  00000+0 -66977-5 0  9995
2 49079  87.9031  61.8363 0001509 104.5816 255.5483 13.17648486197160
ONEWEB-0290             
1 49080U 21075F   25251.91088600 -.00000008  00000+0 -54481-4 0  9998
2 49080  87.9040  61.7956 0001205 106.2848 253.8416 13.17649059196574
ONEWEB-0291             
1 49081U 21075G   25251.89571793 -.00000010  00000+0 -58492-4 0  9995
2 49081  87.9043  61.8032 0001938 102.8674 257.2674 13.17650432196566
ONEWEB-0293             
1 49082U 21075H   25251.92101823 -.00000005  00000+0 -45328-4 0  9991
2 49082  87.9032  61.8279 0001627  95.7643 264.3674 13.17650597196593
ONEWEB-0294             
1 49083U 21075J   25251.93805807 -.00000077  00000+0 -25071-3 0  9997
2 49083  87.8892  46.5350 0001529 111.5476 248.5816 13.12444082197687
ONEWEB-0295             
1 49084U 21075K   25251.92016794  .00000012  00000+0 -23822-5 0  9998
2 49084  87.9041  61.8311 0001980  99.7517 260.3838 13.17647659196557
ONEWEB-0296             
1 49085U 21075L   25251.91858436 -.00000406  00000+0 -11650-2 0  9996
2 49085  87.8893  46.5444 0001959 110.6746 249.4592 13.12443265197684
ONEWEB-0297             
1 49086U 21075M   25251.87317344  .00000284  00000+0  75500-3 0  9997
2 49086  87.8886  46.5916 0001788  94.2048 265.9285 13.12444384198285
ONEWEB-0298             
1 49087U 21075N   25251.92452449 -.00000004  00000+0 -43006-4 0  9999
2 49087  87.9032  61.8251 0001738  89.5604 270.5727 13.17650985196587
ONEWEB-0299             
1 49088U 21075P   25251.92607575 -.00000019  00000+0 -82440-4 0  9993
2 49088  87.9044  61.7810 0001917  91.1679 268.9672 13.17650448196563
ONEWEB-0300             
1 49089U 21075Q   25251.94130323 -.00000009  00000+0 -61172-4 0  9996
2 49089  87.8894  46.5306 0001791  83.2852 276.8480 13.12443737198318
ONEWEB-0301             
1 49090U 21075R   25251.92507530 -.00000432  00000+0 -12351-2 0  9997
2 49090  87.8891  46.5385 0001786  80.0351 280.0979 13.12443563197672
ONEWEB-0302             
1 49091U 21075S   25251.91209012 -.00000318  00000+0 -91980-3 0  9990
2 49091  87.8894  46.5470 0001657 107.1510 252.9800 13.12443213197657
ONEWEB-0304             
1 49092U 21075T   25251.90076840  .00000012  00000+0 -23578-5 0  9991
2 49092  87.9043  61.8170 0001849  94.5772 265.5571 13.17649243196531
ONEWEB-0305             
1 49093U 21075U   25251.89401041 -.00000359  00000+0 -95813-3 0  9999
2 49093  87.9043  61.7949 0002152  97.5349 262.6027 13.17648165196565
ONEWEB-0308             
1 49094U 21075V   25251.90561305 -.00000146  00000+0 -44026-3 0  9996
2 49094  87.8897  46.5399 0001685  93.6981 266.4340 13.12442448197664
ONEWEB-0309             
1 49095U 21075W   25251.89738704 -.00000007  00000+0 -50490-4 0  9993
2 49095  87.9042  61.8114 0001595 105.8189 254.3119 13.17648308196532
ONEWEB-0310             
1 49096U 21075X   25251.92020505 -.00000410  00000+0 -11749-2 0  9991
2 49096  87.8887  46.5823 0001672  98.0635 262.0684 13.12443221198291
ONEWEB-0311             
1 49097U 21075Y   25251.90413952 -.00000011  00000+0 -62644-4 0  9991
2 49097  87.9036  61.8080 0002115  93.8275 266.3098 13.17648711196582
ONEWEB-0312             
1 49098U 21075Z   25251.91932757  .00000010  00000+0 -70438-5 0  9991
2 49098  87.9034  61.8370 0001916 101.3963 258.7384 13.17648472196565
ONEWEB-0313             
1 49099U 21075AA  25251.92426157 -.00000009  00000+0 -55471-4 0  9993
2 49099  87.9027  61.8478 0001825  93.3132 266.8209 13.17649154196557
ONEWEB-0314             
1 49100U 21075AB  25251.89064148 -.00000017  00000+0 -77878-4 0  9994
2 49100  87.9046  61.7924 0001975 100.3884 259.7471 13.17648746196520
ONEWEB-0315             
1 49101U 21075AC  25251.89426199  .00000243  00000+0  64099-3 0  9992
2 49101  87.8890  46.5327 0002069  91.1924 268.9442 13.12441938198275
ONEWEB-0316             
1 49102U 21075AD  25251.88468949 -.00000081  00000+0 -23800-3 0  9998
2 49102  87.9179  31.3272 0001957  93.3828 266.7528 13.18677060200133
ONEWEB-0317             
1 49103U 21075AE  25251.88777738  .00000407  00000+0  10957-2 0  9996
2 49103  87.8893  46.5486 0001031 115.1372 244.9864 13.12443051198290
ONEWEB-0318             
1 49104U 21075AF  25251.88138522  .00000047  00000+0  87377-4 0  9991
2 49104  87.9181  31.3141 0001976  95.3198 264.8159 13.18685641200094
ONEWEB-0319             
1 49105U 21075AG  25251.90583239 -.00000002  00000+0 -38341-4 0  9994
2 49105  87.9035  61.8332 0002156  93.9192 266.2186 13.17648754196567
ONEWEB-0323             
1 49106U 21075AH  25251.80180867  .00000343  00000+0  91924-3 0  9995
2 49106  87.8894  46.5522 0002419  98.3293 261.8110 13.12442718197649
ONEWEB-0329             
1 49107U 21075AJ  25251.91427461 -.00000726  00000+0 -19033-2 0  9999
2 49107  87.9034  61.8355 0001954  95.2909 264.8445 13.17641942196541
ONEWEB-0330             
1 49108U 21075AK  25251.91510560  .00000004  00000+0 -22535-4 0  9994
2 49108  87.9036  61.8387 0001755 100.0268 260.1062 13.17647609196585
ONEWEB-0292             
1 49186U 21083A   25251.84169775 -.00000303  00000+0 -86331-3 0  9995
2 49186  87.9024  16.1569 0001925  98.0333 262.1015 13.13470479193998
ONEWEB-0303             
1 49187U 21083B   25251.87807808  .00000014  00000+0  23720-5 0  9997
2 49187  87.9180  31.3150 0001963  96.3362 263.7993 13.18687616192902
ONEWEB-0306             
1 49188U 21083C   25251.94405851 -.00000074  00000+0 -21962-3 0  9990
2 49188  87.9184  31.2878 0001536  98.0604 262.0702 13.18687028192959
ONEWEB-0307             
1 49189U 21083D   25251.91193752 -.00000412  00000+0 -11632-2 0  9990
2 49189  87.9015  16.1407 0001571 107.8314 252.2986 13.13468370194004
ONEWEB-0320             
1 49190U 21083E   25251.87477607 -.00000006  00000+0 -48251-4 0  9999
2 49190  87.9183  31.3299 0001809  97.0461 263.0876 13.18685039192900
ONEWEB-0321             
1 49191U 21083F   25251.91596736  .00000039  00000+0  64031-4 0  9998
2 49191  87.9278 330.5045 0001573 102.2371 257.8938 13.20771068199702
ONEWEB-0322             
1 49192U 21083G   25251.90771541 -.00000313  00000+0 -89141-3 0  9992
2 49192  87.9025  16.1373 0001333 101.6269 258.5010 13.13471905193990
ONEWEB-0324             
1 49193U 21083H   25251.93745754 -.00000036  00000+0 -12519-3 0  9990
2 49193  87.9181  31.2967 0001776 101.5737 258.5595 13.18685303192936
ONEWEB-0325             
1 49194U 21083J   25251.94075217 -.00000045  00000+0 -14736-3 0  9995
2 49194  87.9184  31.3138 0001644  94.9840 265.1480 13.18687640192949
ONEWEB-0326             
1 49195U 21083K   25251.87986176  .00000045  00000+0  82154-4 0  9991
2 49195  87.9179  31.3139 0002056  92.2841 267.8527 13.18685247192925
ONEWEB-0327             
1 49196U 21083L   25251.87959600 -.00000023  00000+0 -91460-4 0  9992
2 49196  87.9175  31.3413 0002028  89.1474 270.9891 13.18689164192946
